{
    "links": {
        "self": "http://www.neowsapp.com/rest/v1/neo/3708365?api_key=iIulBulltgU6a56xZRHN4H3l9WmuAYTsLGpBGhQ2"
    },
    "id": "3708365",
    "neo_reference_id": "3708365",
    "name": "(2015 BQ509)",
    "designation": "2015 BQ509",
    "nasa_jpl_url": "http://ssd.jpl.nasa.gov/sbdb.cgi?sstr=3708365",
    "absolute_magnitude_h": 23.6,
    "estimated_diameter": {
        "kilometers": {
            "estimated_diameter_min": 0.0506471459,
            "estimated_diameter_max": 0.1132504611
        },
        "meters": {
            "estimated_diameter_min": 50.6471458835,
            "estimated_diameter_max": 113.2504610618
        },
        "miles": {
            "estimated_diameter_min": 0.0314706677,
            "estimated_diameter_max": 0.0703705522
        },
        "feet": {
            "estimated_diameter_min": 166.1651821003,
            "estimated_diameter_max": 371.5566426699
        }
    },
    "is_potentially_hazardous_asteroid": false,
    "close_approach_data": [
        {
            "close_approach_date": "2015-02-05",
            "close_approach_date_full": "2015-Feb-05 19:44",
            "epoch_date_close_approach": 1423165440000,
            "relative_velocity": {
                "kilometers_per_second": "8.0977948197",
                "kilometers_per_hour": "29152.0613510828",
                "miles_per_hour": "18113.9572322881"
            },
            "miss_distance": {
                "astronomical": "0.1302393235",
                "lunar": "50.6630968415",
                "kilometers": "19483525.385840945",
                "miles": "12106501.288837241"
            },
            "orbiting_body": "Earth"
        }
    ],
    "orbital_data": {
        "orbit_id": "6",
        "orbit_determination_date": "2017-04-06 08:36:04",
        "first_observation_date": "2015-01-23",
        "last_observation_date": "2015-02-10",
        "data_arc_in_days": 18,
        "observations_used": 17,
        "orbit_uncertainty": "8",
        "minimum_orbit_intersection": ".0778533",
        "jupiter_tisserand_invariant": "4.192",
        "epoch_osculation": "2457047.5",
        "eccentricity": ".3700935194727961",
        "semi_major_axis": "1.637268230888417",
        "inclination": "13.45963174556822",
        "ascending_node_longitude": "300.3759640753229",
        "orbital_period": "765.205669889815",
        "perihelion_distance": "1.031325868997924",
        "perihelion_argument": "211.7280614793181",
        "aphelion_distance": "2.243210592778909",
        "perihelion_time": "2457078.845658687226",
        "mean_anomaly": "345.2530665003746",
        "mean_motion": ".470461751873634",
        "equinox": "J2000",
        "orbit_class": {
            "orbit_class_type": "AMO",
            "orbit_class_description": "Near-Earth asteroid orbits similar to that of 1221 Amor",
            "orbit_class_range": "1.017 AU < q (perihelion) < 1.3 AU"
        }
    },
    "is_sentry_object": false
}